
[{"ORDINAL":"5","COMMENT":"GENERATED VIA SPACETRACK.ORG API","ORIGINATOR":"JSPOC","NORAD_CAT_ID":"40263","OBJECT_NAME":"CZ-2C DEB","OBJECT_TYPE":"DEBRIS","CLASSIFICATION_TYPE":"U","INTLDES":"14059C","EPOCH":"2015-04-04 05:25:56","EPOCH_MICROSECONDS":"633088","MEAN_MOTION":"14.48316325","ECCENTRICITY":"0.011266","INCLINATION":"98.3221","RA_OF_ASC_NODE":"184.5213","ARG_OF_PERICENTER":"8.8406","MEAN_ANOMALY":"351.474","EPHEMERIS_TYPE":"0","ELEMENT_SET_NO":"999","REV_AT_EPOCH":"2720","BSTAR":"0.00096109","MEAN_MOTION_DOT":"3.846e-05","MEAN_MOTION_DDOT":"0","FILE":"1850916","TLE_LINE0":"0 CZ-2C DEB","TLE_LINE1":"1 40263U 14059C   15094.22634992  .00003846  00000-0  96109-3 0  9999","TLE_LINE2":"2 40263 098.3221 184.5213 0112660 008.8406 351.4740 14.48316325 27200","OBJECT_ID":"2014-059C","OBJECT_NUMBER":"40263"},{"ORDINAL":"5","COMMENT":"GENERATED VIA SPACETRACK.ORG API","ORIGINATOR":"JSPOC","NORAD_CAT_ID":"40260","OBJECT_NAME":"BREEZE-M DEB (TANK)","OBJECT_TYPE":"DEBRIS","CLASSIFICATION_TYPE":"U","INTLDES":"14058C","EPOCH":"2015-04-04 11:35:23","EPOCH_MICROSECONDS":"818848","MEAN_MOTION":"2.27128474","ECCENTRICITY":"0.7225256","INCLINATION":"45.6111","RA_OF_ASC_NODE":"269.202","ARG_OF_PERICENTER":"52.4051","MEAN_ANOMALY":"353.4712","EPHEMERIS_TYPE":"0","ELEMENT_SET_NO":"999","REV_AT_EPOCH":"425","BSTAR":"0.00098881","MEAN_MOTION_DOT":"3.87e-06","MEAN_MOTION_DDOT":"0","FILE":"1851054","TLE_LINE0":"0 BREEZE-M DEB (TANK)","TLE_LINE1":"1 40260U 14058C   15094.48291457  .00000387  00000-0  98881-3 0  9994","TLE_LINE2":"2 40260 045.6111 269.2020 7225256 052.4051 353.4712 02.27128474  4252","OBJECT_ID":"2014-058C","OBJECT_NUMBER":"40260"},{"ORDINAL":"5","COMMENT":"GENERATED VIA SPACETRACK.ORG API","ORIGINATOR":"JSPOC","NORAD_CAT_ID":"40386","OBJECT_NAME":"BREEZE-M DEB (TANK)","OBJECT_TYPE":"DEBRIS","CLASSIFICATION_TYPE":"U","INTLDES":"15005C","EPOCH":"2015-04-04 20:26:01","EPOCH_MICROSECONDS":"815359","MEAN_MOTION":"5.25222884","ECCENTRICITY":"0.5183753","INCLINATION":"50.751","RA_OF_ASC_NODE":"280.938","ARG_OF_PERICENTER":"209.0764","MEAN_ANOMALY":"108.0618","EPHEMERIS_TYPE":"0","ELEMENT_SET_NO":"999","REV_AT_EPOCH":"324","BSTAR":"0.00075579","MEAN_MOTION_DOT":"2.002e-05","MEAN_MOTION_DDOT":"0","FILE":"1851337","TLE_LINE0":"0 BREEZE-M DEB (TANK)","TLE_LINE1":"1 40386U 15005C   15094.85140990  .00002002  00000-0  75579-3 0  9997","TLE_LINE2":"2 40386 050.7510 280.9380 5183753 209.0764 108.0618 05.25222884  3242","OBJECT_ID":"2015-005C","OBJECT_NUMBER":"40386"},{"ORDINAL":"4","COMMENT":"GENERATED VIA SPACETRACK.ORG API","ORIGINATOR":"JSPOC","NORAD_CAT_ID":"39524","OBJECT_NAME":"BREEZE-M DEB (TANK)","OBJECT_TYPE":"DEBRIS","CLASSIFICATION_TYPE":"U","INTLDES":"14007C","EPOCH":"2015-04-04 22:40:08","EPOCH_MICROSECONDS":"16671","MEAN_MOTION":"3.71747661","ECCENTRICITY":"0.6173906","INCLINATION":"49.3885","RA_OF_ASC_NODE":"269.9194","ARG_OF_PERICENTER":"168.655","MEAN_ANOMALY":"217.0951","EPHEMERIS_TYPE":"0","ELEMENT_SET_NO":"999","REV_AT_EPOCH":"1534","BSTAR":"0.0013963","MEAN_MOTION_DOT":"1.872e-05","MEAN_MOTION_DDOT":"0","FILE":"1851381","TLE_LINE0":"0 BREEZE-M DEB (TANK)","TLE_LINE1":"1 39524U 14007C   15094.94453723  .00001872  00000-0  13963-2 0  9993","TLE_LINE2":"2 39524 049.3885 269.9194 6173906 168.6550 217.0951 03.71747661 15345","OBJECT_ID":"2014-007C","OBJECT_NUMBER":"39524"},{"ORDINAL":"5","COMMENT":"GENERATED VIA SPACETRACK.ORG API","ORIGINATOR":"JSPOC","NORAD_CAT_ID":"40335","OBJECT_NAME":"ARIANE 5 DEB (SYLDA)","OBJECT_TYPE":"DEBRIS","CLASSIFICATION_TYPE":"U","INTLDES":"14078D","EPOCH":"2015-04-05 04:09:23","EPOCH_MICROSECONDS":"628959","MEAN_MOTION":"2.35903707","ECCENTRICITY":"0.7235332","INCLINATION":"5.8327","RA_OF_ASC_NODE":"158.0325","ARG_OF_PERICENTER":"279.7776","MEAN_ANOMALY":"12.195","EPHEMERIS_TYPE":"0","ELEMENT_SET_NO":"999","REV_AT_EPOCH":"276","BSTAR":"0.0069345","MEAN_MOTION_DOT":"0.00061657","MEAN_MOTION_DDOT":"0","FILE":"1851554","TLE_LINE0":"0 ARIANE 5 DEB (SYLDA)","TLE_LINE1":"1 40335U 14078D   15095.17319015  .00061657  00000-0  69345-2 0  9996","TLE_LINE2":"2 40335 005.8327 158.0325 7235332 279.7776 012.1950 02.35903707  2765","OBJECT_ID":"2014-078D","OBJECT_NUMBER":"40335"},{"ORDINAL":"5","COMMENT":"GENERATED VIA SPACETRACK.ORG API","ORIGINATOR":"JSPOC","NORAD_CAT_ID":"40049","OBJECT_NAME":"SL-24 PLAT","OBJECT_TYPE":"DEBRIS","CLASSIFICATION_TYPE":"U","INTLDES":"14033AR","EPOCH":"2015-04-05 05:43:15","EPOCH_MICROSECONDS":"869567","MEAN_MOTION":"14.8620893","ECCENTRICITY":"0.0014844","INCLINATION":"97.9675","RA_OF_ASC_NODE":"355.3994","ARG_OF_PERICENTER":"58.4804","MEAN_ANOMALY":"301.7859","EPHEMERIS_TYPE":"0","ELEMENT_SET_NO":"999","REV_AT_EPOCH":"4280","BSTAR":"0.00035076","MEAN_MOTION_DOT":"3.031e-05","MEAN_MOTION_DDOT":"0","FILE":"1851375","TLE_LINE0":"0 SL-24 PLAT","TLE_LINE1":"1 40049U 14033AR  15095.23837812  .00003031  00000-0  35076-3 0  9993","TLE_LINE2":"2 40049 097.9675 355.3994 0014844 058.4804 301.7859 14.86208930 42808","OBJECT_ID":"2014-033AR","OBJECT_NUMBER":"40049"},{"ORDINAL":"3","COMMENT":"GENERATED VIA SPACETRACK.ORG API","ORIGINATOR":"JSPOC","NORAD_CAT_ID":"40265","OBJECT_NAME":"CZ-2C DEB","OBJECT_TYPE":"DEBRIS","CLASSIFICATION_TYPE":"U","INTLDES":"14059E","EPOCH":"2015-04-05 11:44:30","EPOCH_MICROSECONDS":"412031","MEAN_MOTION":"14.18499653","ECCENTRICITY":"0.0197989","INCLINATION":"97.9291","RA_OF_ASC_NODE":"168.9739","ARG_OF_PERICENTER":"335.0827","MEAN_ANOMALY":"24.089","EPHEMERIS_TYPE":"0","ELEMENT_SET_NO":"999","REV_AT_EPOCH":"2682","BSTAR":"0.00058376","MEAN_MOTION_DOT":"1.426e-05","MEAN_MOTION_DDOT":"0","FILE":"1851500","TLE_LINE0":"0 CZ-2C DEB","TLE_LINE1":"1 40265U 14059E   15095.48924088  .00001426  00000-0  58376-3 0  9994","TLE_LINE2":"2 40265 097.9291 168.9739 0197989 335.0827 024.0890 14.18499653 26821","OBJECT_ID":"2014-059E","OBJECT_NUMBER":"40265"},{"ORDINAL":"4","COMMENT":"GENERATED VIA SPACETRACK.ORG API","ORIGINATOR":"JSPOC","NORAD_CAT_ID":"40114","OBJECT_NAME":"CZ-4C DEB","OBJECT_TYPE":"DEBRIS","CLASSIFICATION_TYPE":"U","INTLDES":"14047F","EPOCH":"2015-04-05 12:10:07","EPOCH_MICROSECONDS":"294367","MEAN_MOTION":"13.43578492","ECCENTRICITY":"0.0029247","INCLINATION":"63.4175","RA_OF_ASC_NODE":"99.2293","ARG_OF_PERICENTER":"13.4359","MEAN_ANOMALY":"346.7452","EPHEMERIS_TYPE":"0","ELEMENT_SET_NO":"999","REV_AT_EPOCH":"3215","BSTAR":"0","MEAN_MOTION_DOT":"-9e-07","MEAN_MOTION_DDOT":"0","FILE":"1851548","TLE_LINE0":"0 CZ-4C DEB","TLE_LINE1":"1 40114U 14047F   15095.50702887 -.00000090  00000-0  00000+0 0  9992","TLE_LINE2":"2 40114 063.4175 099.2293 0029247 013.4359 346.7452 13.43578492 32159","OBJECT_ID":"2014-047F","OBJECT_NUMBER":"40114"},{"ORDINAL":"3","COMMENT":"GENERATED VIA SPACETRACK.ORG API","ORIGINATOR":"JSPOC","NORAD_CAT_ID":"40113","OBJECT_NAME":"CZ-4C DEB","OBJECT_TYPE":"DEBRIS","CLASSIFICATION_TYPE":"U","INTLDES":"14047E","EPOCH":"2015-04-05 12:21:49","EPOCH_MICROSECONDS":"484448","MEAN_MOTION":"13.43945356","ECCENTRICITY":"0.0031142","INCLINATION":"63.4147","RA_OF_ASC_NODE":"98.8022","ARG_OF_PERICENTER":"15.4944","MEAN_ANOMALY":"344.7032","EPHEMERIS_TYPE":"0","ELEMENT_SET_NO":"999","REV_AT_EPOCH":"3215","BSTAR":"0","MEAN_MOTION_DOT":"-9e-07","MEAN_MOTION_DDOT":"0","FILE":"1851549","TLE_LINE0":"0 CZ-4C DEB","TLE_LINE1":"1 40113U 14047E   15095.51515607 -.00000090  00000-0  00000+0 0  9994","TLE_LINE2":"2 40113 063.4147 098.8022 0031142 015.4944 344.7032 13.43945356 32150","OBJECT_ID":"2014-047E","OBJECT_NUMBER":"40113"},{"ORDINAL":"3","COMMENT":"GENERATED VIA SPACETRACK.ORG API","ORIGINATOR":"JSPOC","NORAD_CAT_ID":"40078","OBJECT_NAME":"FREGAT DEB","OBJECT_TYPE":"DEBRIS","CLASSIFICATION_TYPE":"U","INTLDES":"14037K","EPOCH":"2015-04-05 13:40:03","EPOCH_MICROSECONDS":"701855","MEAN_MOTION":"14.51705955","ECCENTRICITY":"0.0139306","INCLINATION":"98.3398","RA_OF_ASC_NODE":"150.8615","ARG_OF_PERICENTER":"112.7544","MEAN_ANOMALY":"248.8441","EPHEMERIS_TYPE":"0","ELEMENT_SET_NO":"999","REV_AT_EPOCH":"3929","BSTAR":"0.00020463","MEAN_MOTION_DOT":"8.82e-06","MEAN_MOTION_DDOT":"0","FILE":"1851532","TLE_LINE0":"0 FREGAT DEB","TLE_LINE1":"1 40078U 14037K   15095.56948729  .00000882  00000-0  20463-3 0  9990","TLE_LINE2":"2 40078 098.3398 150.8615 0139306 112.7544 248.8441 14.51705955 39299","OBJECT_ID":"2014-037K","OBJECT_NUMBER":"40078"},{"ORDINAL":"3","COMMENT":"GENERATED VIA SPACETRACK.ORG API","ORIGINATOR":"JSPOC","NORAD_CAT_ID":"39626","OBJECT_NAME":"CZ-2C DEB","OBJECT_TYPE":"DEBRIS","CLASSIFICATION_TYPE":"U","INTLDES":"14014C","EPOCH":"2015-04-05 18:52:54","EPOCH_MICROSECONDS":"993504","MEAN_MOTION":"14.50009937","ECCENTRICITY":"0.011058","INCLINATION":"98.0071","RA_OF_ASC_NODE":"136.8687","ARG_OF_PERICENTER":"166.0652","MEAN_ANOMALY":"194.3638","EPHEMERIS_TYPE":"0","ELEMENT_SET_NO":"999","REV_AT_EPOCH":"5365","BSTAR":"0.00084657","MEAN_MOTION_DOT":"3.502e-05","MEAN_MOTION_DDOT":"0","FILE":"1851595","TLE_LINE0":"0 CZ-2C DEB","TLE_LINE1":"1 39626U 14014C   15095.78674761  .00003502  00000-0  84657-3 0  9995","TLE_LINE2":"2 39626 098.0071 136.8687 0110580 166.0652 194.3638 14.50009937 53654","OBJECT_ID":"2014-014C","OBJECT_NUMBER":"39626"},{"ORDINAL":"3","COMMENT":"GENERATED VIA SPACETRACK.ORG API","ORIGINATOR":"JSPOC","NORAD_CAT_ID":"40266","OBJECT_NAME":"CZ-2C DEB","OBJECT_TYPE":"DEBRIS","CLASSIFICATION_TYPE":"U","INTLDES":"14059F","EPOCH":"2015-04-05 20:35:24","EPOCH_MICROSECONDS":"155808","MEAN_MOTION":"14.19562523","ECCENTRICITY":"0.0193679","INCLINATION":"98.3426","RA_OF_ASC_NODE":"178.2267","ARG_OF_PERICENTER":"337.4962","MEAN_ANOMALY":"21.7792","EPHEMERIS_TYPE":"0","ELEMENT_SET_NO":"999","REV_AT_EPOCH":"2689","BSTAR":"0.00062503","MEAN_MOTION_DOT":"1.547e-05","MEAN_MOTION_DDOT":"0","FILE":"1851617","TLE_LINE0":"0 CZ-2C DEB","TLE_LINE1":"1 40266U 14059F   15095.85791847  .00001547  00000-0  62503-3 0  9992","TLE_LINE2":"2 40266 098.3426 178.2267 0193679 337.4962 021.7792 14.19562523 26895","OBJECT_ID":"2014-059F","OBJECT_NUMBER":"40266"}]